[{"OBJECT_NAME":"STARLINK-6242","OBJECT_ID":"2023-061BC","EPOCH":"2026-03-09T06:49:25.023360","MEAN_MOTION":15.02533214,"ECCENTRICITY":0.00011345,"INCLINATION":43.0037,"RA_OF_ASC_NODE":173.6621,"ARG_OF_PERICENTER":259.0754,"MEAN_ANOMALY":100.9961,"EPHEMERIS_TYPE":0,"CLASSIFICATION_TYPE":"U","NORAD_CAT_ID":56424,"ELEMENT_SET_NO":999,"REV_AT_EPOCH":15699,"BSTAR":1.8376498e-5,"MEAN_MOTION_DOT":4.5e-7,"MEAN_MOTION_DDOT":0},{"OBJECT_NAME":"H-2A R\/B","OBJECT_ID":"2012-025E","EPOCH":"2026-03-09T20:41:54.522240","MEAN_MOTION":14.95172532,"ECCENTRICITY":0.00433117,"INCLINATION":98.4741,"RA_OF_ASC_NODE":35.9227,"ARG_OF_PERICENTER":313.9175,"MEAN_ANOMALY":45.8471,"EPHEMERIS_TYPE":0,"CLASSIFICATION_TYPE":"U","NORAD_CAT_ID":38341,"ELEMENT_SET_NO":999,"REV_AT_EPOCH":74824,"BSTAR":0.00044934548,"MEAN_MOTION_DOT":4.959e-5,"MEAN_MOTION_DDOT":0}]
